{
  "type": "FeatureCollection",
  "features": [
    {
      "type": "Feature",
      "properties": {
        "norad_id": 64751,
        "name": "PROGRESS-MS 31",
        "group": "stations",
        "lat": -45.275635116092246,
        "lon": 53.670742115235605,
        "alt_km": 420.09868978459326,
        "timestamp": "2025-12-19T22:41:51.128705+00:00",
        "meta_object_name": "PROGRESS-MS 31",
        "meta_object_id": "2025-146A",
        "meta_epoch": "2025-12-19T10:35:44.375712",
        "meta_mean_motion": 15.49667075,
        "meta_eccentricity": 0.00031732,
        "meta_inclination": 51.6317,
        "meta_ra_of_asc_node": 109.2912,
        "meta_arg_of_pericenter": 271.328,
        "meta_mean_anomaly": 88.7345,
        "meta_ephemeris_type": 0,
        "meta_classification_type": "U",
        "meta_norad_cat_id": 64751,
        "meta_element_set_no": 999,
        "meta_rev_at_epoch": 675,
        "meta_bstar": 0.00012809493,
        "meta_mean_motion_dot": 6.778e-05,
        "meta_mean_motion_ddot": 0,
        "tle_line1": "1 64751U 25146A   25353.44148583  .00006778  00000+0  12809-3 0  9996",
        "tle_line2": "2 64751  51.6317 109.2912 0003173 271.3280  88.7345 15.49667075  6752"
      },
      "geometry": {
        "type": "Point",
        "coordinates": [
          53.670742115235605,
          -45.275635116092246
        ]
      }
    },
    {
      "type": "Feature",
      "properties": {
        "norad_id": 64786,
        "name": "TIANZHOU-9",
        "group": "stations",
        "lat": -22.19705021373901,
        "lon": -54.56955862237524,
        "alt_km": 394.312556201945,
        "timestamp": "2025-12-19T22:41:51.128715+00:00",
        "meta_object_name": "TIANZHOU-9",
        "meta_object_id": "2025-149A",
        "meta_epoch": "2025-12-19T09:00:48.563712",
        "meta_mean_motion": 15.59465114,
        "meta_eccentricity": 0.00077296,
        "meta_inclination": 41.4684,
        "meta_ra_of_asc_node": 336.4137,
        "meta_arg_of_pericenter": 89.1398,
        "meta_mean_anomaly": 271.0326,
        "meta_ephemeris_type": 0,
        "meta_classification_type": "U",
        "meta_norad_cat_id": 64786,
        "meta_element_set_no": 999,
        "meta_rev_at_epoch": 25530,
        "meta_bstar": 0.00025572286,
        "meta_mean_motion_dot": 0.00020582,
        "meta_mean_motion_ddot": 0,
        "tle_line1": "1 64786U 25149A   25353.37556208  .00020582  00000+0  25572-3 0  9996",
        "tle_line2": "2 64786  41.4684 336.4137 0007729  89.1398 271.0326 15.59465114255307"
      },
      "geometry": {
        "type": "Point",
        "coordinates": [
          -54.56955862237524,
          -22.19705021373901
        ]
      }
    },
    {
      "type": "Feature",
      "properties": {
        "norad_id": 65077,
        "name": "CREW DRAGON 11",
        "group": "stations",
        "lat": -45.27563441781251,
        "lon": 53.67074397553699,
        "alt_km": 420.09868978062696,
        "timestamp": "2025-12-19T22:41:51.128728+00:00",
        "meta_object_name": "CREW DRAGON 11",
        "meta_object_id": "2025-166A",
        "meta_epoch": "2025-12-19T10:35:44.375712",
        "meta_mean_motion": 15.49667075,
        "meta_eccentricity": 0.00031732,
        "meta_inclination": 51.6317,
        "meta_ra_of_asc_node": 109.2912,
        "meta_arg_of_pericenter": 271.328,
        "meta_mean_anomaly": 88.7345,
        "meta_ephemeris_type": 0,
        "meta_classification_type": "U",
        "meta_norad_cat_id": 65077,
        "meta_element_set_no": 999,
        "meta_rev_at_epoch": 214,
        "meta_bstar": 0.00012809493,
        "meta_mean_motion_dot": 6.778e-05,
        "meta_mean_motion_ddot": 0,
        "tle_line1": "1 65077U 25166A   25353.44148583  .00006778  00000+0  12809-3 0  9990",
        "tle_line2": "2 65077  51.6317 109.2912 0003173 271.3280  88.7345 15.49667075  2143"
      },
      "geometry": {
        "type": "Point",
        "coordinates": [
          53.67074397553699,
          -45.27563441781251
        ]
      }
    },
    {
      "type": "Feature",
      "properties": {
        "norad_id": 65304,
        "name": "DRAGON CRS-33",
        "group": "stations",
        "lat": -45.27563408385246,
        "lon": 53.6707448652468,
        "alt_km": 420.0986897787252,
        "timestamp": "2025-12-19T22:41:51.128739+00:00",
        "meta_object_name": "DRAGON CRS-33",
        "meta_object_id": "2025-186A",
        "meta_epoch": "2025-12-19T10:35:44.375712",
        "meta_mean_motion": 15.49667075,
        "meta_eccentricity": 0.00031732,
        "meta_inclination": 51.6317,
        "meta_ra_of_asc_node": 109.2912,
        "meta_arg_of_pericenter": 271.328,
        "meta_mean_anomaly": 88.7345,
        "meta_ephemeris_type": 0,
        "meta_classification_type": "U",
        "meta_norad_cat_id": 65304,
        "meta_element_set_no": 999,
        "meta_rev_at_epoch": 11,
        "meta_bstar": 0.00012809493,
        "meta_mean_motion_dot": 6.778e-05,
        "meta_mean_motion_ddot": 0,
        "tle_line1": "1 65304U 25186A   25353.44148583  .00006778  00000+0  12809-3 0  9995",
        "tle_line2": "2 65304  51.6317 109.2912 0003173 271.3280  88.7345 15.49667075   111"
      },
      "geometry": {
        "type": "Point",
        "coordinates": [
          53.6707448652468,
          -45.27563408385246
        ]
      }
    },
    {
      "type": "Feature",
      "properties": {
        "norad_id": 65586,
        "name": "PROGRESS-MS 32",
        "group": "stations",
        "lat": -45.27563381061336,
        "lon": 53.67074559318863,
        "alt_km": 420.0986897771754,
        "timestamp": "2025-12-19T22:41:51.128748+00:00",
        "meta_object_name": "PROGRESS-MS 32",
        "meta_object_id": "2025-204A",
        "meta_epoch": "2025-12-19T10:35:44.375712",
        "meta_mean_motion": 15.49667075,
        "meta_eccentricity": 0.00031732,
        "meta_inclination": 51.6317,
        "meta_ra_of_asc_node": 109.2912,
        "meta_arg_of_pericenter": 271.328,
        "meta_mean_anomaly": 88.7345,
        "meta_ephemeris_type": 0,
        "meta_classification_type": "U",
        "meta_norad_cat_id": 65586,
        "meta_element_set_no": 999,
        "meta_rev_at_epoch": 27,
        "meta_bstar": 0.00012809493,
        "meta_mean_motion_dot": 6.778e-05,
        "meta_mean_motion_ddot": 0,
        "tle_line1": "1 65586U 25204A   25353.44148583  .00006778  00000+0  12809-3 0  9998",
        "tle_line2": "2 65586  51.6317 109.2912 0003173 271.3280  88.7345 15.49667075   270"
      },
      "geometry": {
        "type": "Point",
        "coordinates": [
          53.67074559318863,
          -45.27563381061336
        ]
      }
    },
    {
      "type": "Feature",
      "properties": {
        "norad_id": 65616,
        "name": "CYGNUS NG-23",
        "group": "stations",
        "lat": -45.27563335521325,
        "lon": 53.670746806429285,
        "alt_km": 420.0986897745888,
        "timestamp": "2025-12-19T22:41:51.128763+00:00",
        "meta_object_name": "CYGNUS NG-23",
        "meta_object_id": "2025-208A",
        "meta_epoch": "2025-12-19T10:35:44.375712",
        "meta_mean_motion": 15.49667075,
        "meta_eccentricity": 0.00031732,
        "meta_inclination": 51.6317,
        "meta_ra_of_asc_node": 109.2912,
        "meta_arg_of_pericenter": 271.328,
        "meta_mean_anomaly": 88.7345,
        "meta_ephemeris_type": 0,
        "meta_classification_type": "U",
        "meta_norad_cat_id": 65616,
        "meta_element_set_no": 999,
        "meta_rev_at_epoch": 22,
        "meta_bstar": 0.00012809493,
        "meta_mean_motion_dot": 6.778e-05,
        "meta_mean_motion_ddot": 0,
        "tle_line1": "1 65616U 25208A   25353.44148583  .00006778  00000+0  12809-3 0  9996",
        "tle_line2": "2 65616  51.6317 109.2912 0003173 271.3280  88.7345 15.49667075   229"
      },
      "geometry": {
        "type": "Point",
        "coordinates": [
          53.670746806429285,
          -45.27563335521325
        ]
      }
    },
    {
      "type": "Feature",
      "properties": {
        "norad_id": 65729,
        "name": "DRAGONFLY",
        "group": "stations",
        "lat": 12.123802999008259,
        "lon": -91.00406308405147,
        "alt_km": 350.2174904288431,
        "timestamp": "2025-12-19T22:41:51.128774+00:00",
        "meta_object_name": "DRAGONFLY",
        "meta_object_id": "1998-067XH",
        "meta_epoch": "2025-12-19T14:23:03.835680",
        "meta_mean_motion": 15.741828,
        "meta_eccentricity": 0.000728,
        "meta_inclination": 51.6251,
        "meta_ra_of_asc_node": 100.5779,
        "meta_arg_of_pericenter": 320.5398,
        "meta_mean_anomaly": 39.507,
        "meta_ephemeris_type": 0,
        "meta_classification_type": "U",
        "meta_norad_cat_id": 65729,
        "meta_element_set_no": 999,
        "meta_rev_at_epoch": 1424,
        "meta_bstar": 0.00096899,
        "meta_mean_motion_dot": 0.00144123,
        "meta_mean_motion_ddot": 0,
        "tle_line1": "1 65729U 98067XH  25353.59934995  .00144123  00000+0  96899-3 0  9998",
        "tle_line2": "2 65729  51.6251 100.5779 0007280 320.5398  39.5070 15.74182800 14248"
      },
      "geometry": {
        "type": "Point",
        "coordinates": [
          -91.00406308405147,
          12.123802999008259
        ]
      }
    }
  ]
}